#aV2006  3 10  0  0   .00000000      96 DD+AD WGS84 FIT  NGA
## 1365 432000.00000000   900.00000000 53804  .0000000000000
+   29     1  2  3  4  5  6  7  8  9 10 11 13 14 15 16 17 18
+         19 20 21 22 23 24 25 26 27 28 29 30  0  0  0  0  0
+          0  0  0  0  0  0  0  0  0  0  0  0  0  0  0  0  0
+          0  0  0  0  0  0  0  0  0  0  0  0  0  0  0  0  0
+          0  0  0  0  0  0  0  0  0  0  0  0  0  0  0  0  0
++         0  0  0  0  0  0  0  0  0  0  0  0  0  0  0  0  0
++         0  0  0  0  0  0  0  0  0  0  0  0  0  0  0  0  0
++         0  0  0  0  0  0  0  0  0  0  0  0  0  0  0  0  0
++         0  0  0  0  0  0  0  0  0  0  0  0  0  0  0  0  0
++         0  0  0  0  0  0  0  0  0  0  0  0  0  0  0  0  0
%c cc cc ccc ccc cccc cccc cccc cccc ccccc ccccc ccccc ccccc
%c cc cc ccc ccc cccc cccc cccc cccc ccccc ccccc ccccc ccccc
%f  0.0000000  0.000000000  0.00000000000  0.000000000000000
%f  0.0000000  0.000000000  0.00000000000  0.000000000000000
%i    0    0    0    0      0      0      0      0         0
%i    0    0    0    0      0      0      0      0         0
/*      NGA, ST. LOUIS,MO.                                  
/*   EPHEMERIS COMPUTED FROM  3 DAYS OF DATA                
/* CCCCCCCCCCCCCCCCCCCCCCCCCCCCCCCCCCCCCCCCCCCCCCCCCCCCCCCCC
/* CCCCCCCCCCCCCCCCCCCCCCCCCCCCCCCCCCCCCCCCCCCCCCCCCCCCCCCCC
*  2006  3 10  9 30   .00000000                                                 
P  1  14864.663485    617.319847 -21807.988696     40.723821                    
V  1   5613.558742  27524.639545   4524.912858       .020264                    
P  2 -21810.848213   9146.307628 -12173.811470    -15.193313                    
V  2   8965.235368 -12467.019630 -26192.402186       .018036                    
P  3  14736.350936  -5920.519906  21121.247359     80.717060                    
V  3   9312.039875  25711.863817   1005.746158       .029292                    
P  4 -19255.553367    -41.188575 -18480.705758    172.594984                    
V  4  16001.054081 -16990.997534 -16317.877851       .110470                    
P  5  -5536.002892  14933.730527 -21437.324284   -385.977786                    
V  5 -26286.050245  -5588.322210   3088.470309       .805921                    
P  6   6207.531937  25719.316814  -1557.646865    390.467796                    
V  6  -4203.988578  -1096.207561 -31117.976801       .299445                    
P  7   2528.040772  25329.930926  -7103.961175    510.669330                    
V  7  -6271.054461  -8026.647252 -29468.193835       .067985                    
P  8 -12748.326389  -8395.723622  21627.014217    -59.013547                    
V  8  20506.819015 -18669.345342   4419.808338      -.010115                    
P  9 -13701.127687  21601.203169  -7088.110720     11.169048                    
V  9  -7846.105958   4088.995496  30182.088824       .016321                    
P 10 -22319.755391   3240.282533  14185.398719     79.914672                    
V 10 -16754.830099  -6815.580831 -24343.069932       .005985                    
P 11  11344.589462 -23028.908849  -6369.040036    312.434438                    
V 11   8735.054176  -3560.916734  28973.950594       .027362                    
P 13  -6056.675217 -25893.858875    163.426278     46.471191                    
V 13   1682.828805   -695.088942 -32372.851290       .026061                    
P 14  14540.461306  15655.429638 -15736.209216    -18.106462                    
V 14   3352.188426  19809.443824  22661.323468       .007036                    
P 15  12254.862684   9437.626040  21453.346751    578.036656                    
V 15 -21051.121934  17879.186347   3751.312817       .059714                    
P 16  25199.709737   1135.566392   8551.713313     30.364718                    
V 16   9599.158311   5353.026255 -29195.015898       .020027                    
P 17 -14703.314108 -16825.878350 -14442.947241     65.371780                    
V 17  -2509.077562 -18217.478595  23723.515860       .066455                    
P 18  12504.858611  16568.995773  16830.093511   -224.952895                    
V 18 -20525.018409  -5071.178642  20068.325637      -.019972                    
P 19   8739.523227 -18384.242593  17142.895811    -19.362370                    
V 19   5813.117980  20872.939788  19571.181581       .012195                    
P 20   5636.465282 -14294.568237 -21752.965267    -31.006160                    
V 20  26398.015410   7407.608718   2016.391472       .008453                    
P 21   4194.404860  16234.015776  20532.239846     12.141095                    
V 21 -20264.687586  16580.509485  -9500.525145       .031748                    
P 22  22721.490819  12348.234458   6212.843493     74.829596                    
V 22  -8188.875872    185.239833  30339.619242       .032859                    
P 23   1887.207569 -23935.344231 -11274.983191    147.671855                    
V 23   5778.131727  13205.314178 -27428.903560      -.012886                    
P 24  -8389.112424 -12671.911424 -21534.784466     91.621826                    
V 24  21210.784494 -18163.843721   2643.152623       .029872                    
P 25  19658.306832  -4456.046362 -16952.292628    -37.969337                    
V 25 -13000.385941  18207.711275 -19286.768626       .312712                    
P 26  -9962.090241  14157.573280  19579.218577    -56.069582                    
V 26  -6965.753830 -24876.704319  14749.509692      -.094112                    
P 27  -4860.466492 -16434.480110  20804.819624     39.175336                    
V 27  17711.569565 -17927.300671 -10671.543264       .016434                    
P 28 -21128.369223 -13427.903835   9654.177565     31.814766                    
V 28  11895.030090   1283.927189  28296.700640      -.006443                    
P 29 -11948.117514  10444.932447  21493.860468    556.428531                    
V 29  -7437.613860 -25652.359088   8682.593935       .105912                    
P 30   5249.727904  16507.172753 -20442.148768     27.695755                    
V 30 -24878.477648  -5054.667761 -10500.727048       .002857                    
EOF
